[
    {
        "OBJECT_NAME": "COSMOS 1975",
        "OBJECT_ID": "1988-093A",
        "EPOCH": "2026-04-25T20:43:42.015936",
        "MEAN_MOTION": 15.28646575,
        "ECCENTRICITY": 0.0011761,
        "INCLINATION": 82.5186,
        "RA_OF_ASC_NODE": 70.2958,
        "ARG_OF_PERICENTER": 15.0205,
        "MEAN_ANOMALY": 345.1382,
        "EPHEMERIS_TYPE": 0,
        "CLASSIFICATION_TYPE": "U",
        "NORAD_CAT_ID": 19573,
        "ELEMENT_SET_NO": 999,
        "REV_AT_EPOCH": 2661,
        "BSTAR": 0.00025986,
        "MEAN_MOTION_DOT": 7.284e-05,
        "MEAN_MOTION_DDOT": 0
    },
    {
        "OBJECT_NAME": "SL-14 R/B",
        "OBJECT_ID": "1988-093B",
        "EPOCH": "2026-04-25T17:46:14.363328",
        "MEAN_MOTION": 14.85703075,
        "ECCENTRICITY": 0.0019273,
        "INCLINATION": 82.5331,
        "RA_OF_ASC_NODE": 357.8873,
        "ARG_OF_PERICENTER": 240.5197,
        "MEAN_ANOMALY": 180.6467,
        "EPHEMERIS_TYPE": 0,
        "CLASSIFICATION_TYPE": "U",
        "NORAD_CAT_ID": 19574,
        "ELEMENT_SET_NO": 999,
        "REV_AT_EPOCH": 800,
        "BSTAR": 3.2817e-05,
        "MEAN_MOTION_DOT": 3.1e-06,
        "MEAN_MOTION_DDOT": 0
    },
    {
        "OBJECT_NAME": "SL-16 R/B",
        "OBJECT_ID": "1988-102B",
        "EPOCH": "2026-04-25T19:21:10.920096",
        "MEAN_MOTION": 14.16157281,
        "ECCENTRICITY": 0.001626,
        "INCLINATION": 71.0002,
        "RA_OF_ASC_NODE": 52.3545,
        "ARG_OF_PERICENTER": 294.8769,
        "MEAN_ANOMALY": 65.0664,
        "EPHEMERIS_TYPE": 0,
        "CLASSIFICATION_TYPE": "U",
        "NORAD_CAT_ID": 19650,
        "ELEMENT_SET_NO": 999,
        "REV_AT_EPOCH": 93356,
        "BSTAR": -1.8733e-05,
        "MEAN_MOTION_DOT": -8.5e-07,
        "MEAN_MOTION_DDOT": 0
    },
    {
        "OBJECT_NAME": "INTERCOSMOS 24",
        "OBJECT_ID": "1989-080A",
        "EPOCH": "2026-04-25T19:53:19.851072",
        "MEAN_MOTION": 12.59601467,
        "ECCENTRICITY": 0.1187523,
        "INCLINATION": 82.604,
        "RA_OF_ASC_NODE": 73.7038,
        "ARG_OF_PERICENTER": 183.3519,
        "MEAN_ANOMALY": 175.9073,
        "EPHEMERIS_TYPE": 0,
        "CLASSIFICATION_TYPE": "U",
        "NORAD_CAT_ID": 20261,
        "ELEMENT_SET_NO": 999,
        "REV_AT_EPOCH": 67273,
        "BSTAR": 9.819e-05,
        "MEAN_MOTION_DOT": 3.5e-06,
        "MEAN_MOTION_DDOT": 0
    },
    {
        "OBJECT_NAME": "SL-14 R/B",
        "OBJECT_ID": "1989-080C",
        "EPOCH": "2026-04-25T18:19:40.268928",
        "MEAN_MOTION": 12.50528987,
        "ECCENTRICITY": 0.1230991,
        "INCLINATION": 82.5908,
        "RA_OF_ASC_NODE": 142.977,
        "ARG_OF_PERICENTER": 77.2106,
        "MEAN_ANOMALY": 296.342,
        "EPHEMERIS_TYPE": 0,
        "CLASSIFICATION_TYPE": "U",
        "NORAD_CAT_ID": 20262,
        "ELEMENT_SET_NO": 999,
        "REV_AT_EPOCH": 66603,
        "BSTAR": 8.1081e-05,
        "MEAN_MOTION_DOT": 3.01e-06,
        "MEAN_MOTION_DDOT": 0
    },
    {
        "OBJECT_NAME": "DELTA 1 R/B",
        "OBJECT_ID": "1989-089B",
        "EPOCH": "2026-04-25T19:11:10.651776",
        "MEAN_MOTION": 14.50696893,
        "ECCENTRICITY": 0.0068329,
        "INCLINATION": 97.0667,
        "RA_OF_ASC_NODE": 315.7315,
        "ARG_OF_PERICENTER": 334.8903,
        "MEAN_ANOMALY": 24.8978,
        "EPHEMERIS_TYPE": 0,
        "CLASSIFICATION_TYPE": "U",
        "NORAD_CAT_ID": 20323,
        "ELEMENT_SET_NO": 999,
        "REV_AT_EPOCH": 90256,
        "BSTAR": 6.0878e-05,
        "MEAN_MOTION_DOT": 2.1e-06,
        "MEAN_MOTION_DDOT": 0
    },
    {
        "OBJECT_NAME": "ARIANE 40 R/B",
        "OBJECT_ID": "1990-005H",
        "EPOCH": "2026-04-25T17:16:05.748672",
        "MEAN_MOTION": 14.39898814,
        "ECCENTRICITY": 0.0011231,
        "INCLINATION": 98.2998,
        "RA_OF_ASC_NODE": 174.9578,
        "ARG_OF_PERICENTER": 67.2952,
        "MEAN_ANOMALY": 292.9422,
        "EPHEMERIS_TYPE": 0,
        "CLASSIFICATION_TYPE": "U",
        "NORAD_CAT_ID": 20443,
        "ELEMENT_SET_NO": 999,
        "REV_AT_EPOCH": 89957,
        "BSTAR": 7.3466e-05,
        "MEAN_MOTION_DOT": 1.89e-06,
        "MEAN_MOTION_DDOT": 0
    },
    {
        "OBJECT_NAME": "DELTA 2 R/B(1)",
        "OBJECT_ID": "1990-008B",
        "EPOCH": "2026-04-25T13:36:52.119360",
        "MEAN_MOTION": 15.6191858,
        "ECCENTRICITY": 0.0074258,
        "INCLINATION": 35.6012,
        "RA_OF_ASC_NODE": 225.755,
        "ARG_OF_PERICENTER": 338.5337,
        "MEAN_ANOMALY": 21.2294,
        "EPHEMERIS_TYPE": 0,
        "CLASSIFICATION_TYPE": "U",
        "NORAD_CAT_ID": 20453,
        "ELEMENT_SET_NO": 999,
        "REV_AT_EPOCH": 93345,
        "BSTAR": 0.0005556,
        "MEAN_MOTION_DOT": 0.00057878,
        "MEAN_MOTION_DDOT": 0
    },
    {
        "OBJECT_NAME": "COSMOS 2058",
        "OBJECT_ID": "1990-010A",
        "EPOCH": "2026-04-25T18:46:37.435872",
        "MEAN_MOTION": 15.1169727,
        "ECCENTRICITY": 0.0009761,
        "INCLINATION": 82.4695,
        "RA_OF_ASC_NODE": 1.0295,
        "ARG_OF_PERICENTER": 160.7045,
        "MEAN_ANOMALY": 199.4557,
        "EPHEMERIS_TYPE": 0,
        "CLASSIFICATION_TYPE": "U",
        "NORAD_CAT_ID": 20465,
        "ELEMENT_SET_NO": 999,
        "REV_AT_EPOCH": 94935,
        "BSTAR": 0.00015309,
        "MEAN_MOTION_DOT": 2.637e-05,
        "MEAN_MOTION_DDOT": 0
    },
    {
        "OBJECT_NAME": "SL-14 R/B",
        "OBJECT_ID": "1990-010B",
        "EPOCH": "2026-04-25T18:20:09.424608",
        "MEAN_MOTION": 14.83611833,
        "ECCENTRICITY": 0.0020795,
        "INCLINATION": 82.5042,
        "RA_OF_ASC_NODE": 223.1688,
        "ARG_OF_PERICENTER": 141.5379,
        "MEAN_ANOMALY": 218.7323,
        "EPHEMERIS_TYPE": 0,
        "CLASSIFICATION_TYPE": "U",
        "NORAD_CAT_ID": 20466,
        "ELEMENT_SET_NO": 999,
        "REV_AT_EPOCH": 93546,
        "BSTAR": 4.317e-05,
        "MEAN_MOTION_DOT": 3.81e-06,
        "MEAN_MOTION_DDOT": 0
    },
    {
        "OBJECT_NAME": "SL-14 R/B",
        "OBJECT_ID": "1990-018B",
        "EPOCH": "2026-04-25T16:36:20.460672",
        "MEAN_MOTION": 14.82184366,
        "ECCENTRICITY": 0.0014859,
        "INCLINATION": 82.5231,
        "RA_OF_ASC_NODE": 179.1725,
        "ARG_OF_PERICENTER": 299.702,
        "MEAN_ANOMALY": 60.2715,
        "EPHEMERIS_TYPE": 0,
        "CLASSIFICATION_TYPE": "U",
        "NORAD_CAT_ID": 20511,
        "ELEMENT_SET_NO": 999,
        "REV_AT_EPOCH": 92954,
        "BSTAR": 3.0547e-05,
        "MEAN_MOTION_DOT": 2.67e-06,
        "MEAN_MOTION_DDOT": 0
    },
    {
        "OBJECT_NAME": "HST",
        "OBJECT_ID": "1990-037B",
        "EPOCH": "2026-04-25T14:02:48.110784",
        "MEAN_MOTION": 15.30144545,
        "ECCENTRICITY": 0.0001645,
        "INCLINATION": 28.4745,
        "RA_OF_ASC_NODE": 79.9164,
        "ARG_OF_PERICENTER": 280.6914,
        "MEAN_ANOMALY": 79.3497,
        "EPHEMERIS_TYPE": 0,
        "CLASSIFICATION_TYPE": "U",
        "NORAD_CAT_ID": 20580,
        "ELEMENT_SET_NO": 999,
        "REV_AT_EPOCH": 78050,
        "BSTAR": 0.00020815,
        "MEAN_MOTION_DOT": 6.48e-05,
        "MEAN_MOTION_DDOT": 0
    },
    {
        "OBJECT_NAME": "SL-16 R/B",
        "OBJECT_ID": "1990-046B",
        "EPOCH": "2026-04-25T15:16:32.098368",
        "MEAN_MOTION": 14.15015186,
        "ECCENTRICITY": 0.0016081,
        "INCLINATION": 70.9991,
        "RA_OF_ASC_NODE": 199.314,
        "ARG_OF_PERICENTER": 237.3411,
        "MEAN_ANOMALY": 122.6161,
        "EPHEMERIS_TYPE": 0,
        "CLASSIFICATION_TYPE": "U",
        "NORAD_CAT_ID": 20625,
        "ELEMENT_SET_NO": 999,
        "REV_AT_EPOCH": 85503,
        "BSTAR": 6.1062e-05,
        "MEAN_MOTION_DOT": 7.1e-07,
        "MEAN_MOTION_DDOT": 0
    }
]